[Satellite]
VERSION=1.1
NAME=SCISAT 1
NICKNAME=SCISAT 1
TLE1=1 27858U 03036A   22342.10221147  .00000572  00000+0  84691-4 0  9998
TLE2=2 27858  73.9322 201.1938 0008521 207.8256 152.2464 14.77746733 41095
STATUS=0
